STARLINK-5884           
1 55957U 23037AV  24262.81951292 -.00000406  00000+0 -26277-4 0  9998
2 55957  70.0010 178.1595 0002565 267.1553  92.9313 14.98318943 84395
STARLINK-5928           
1 55958U 23037AW  24262.81116116 -.00000156  00000+0 -53066-5 0  9996
2 55958  70.0012 178.1322 0002638 266.9972  93.0885 14.98324882 84394
STARLINK-5929           
1 55959U 23037AX  24262.80699921 -.00001194  00000+0 -92295-4 0  9995
2 55959  70.0001 178.1164 0002953 269.2791  90.8029 14.98315407 84390
STARLINK-5938           
1 55960U 23037AY  24262.82786041 -.00000850  00000+0 -63461-4 0  9990
2 55960  70.0000 178.1712 0002570 248.5579 111.5306 14.98319044 84399
STARLINK-5933           
1 55961U 23037AZ  24262.79446883 -.00001195  00000+0 -92380-4 0  9999
2 55961  69.9998 178.0715 0003269 262.8606  97.2181 14.98319170 84392
STARLINK-5906           
1 55962U 23037BA  24262.83203462 -.00001646  00000+0 -13026-3 0  9999
2 55962  70.0015 178.2002 0002662 266.9779  93.1076 14.98320328 84394
STARLINK-5924           
1 55963U 23037BB  24262.80282398 -.00001817  00000+0 -14461-3 0  9996
2 55963  70.0008 178.1026 0002804 265.8863  94.1976 14.98314896 84395
STARLINK-5895           
1 55964U 23037BC  24262.86775004 -.00001075  00000+0 -85989-4 0  9994
2 55964  70.0007 177.4720 0002775 270.5512  89.5328 14.96708116 84411
STARLINK-5894           
1 55965U 23037BD  24262.78612294 -.00001136  00000+0 -87457-4 0  9997
2 55965  69.9999 178.0432 0003051 264.5238  95.5573 14.98316837 84395
STARLINK-5905           
1 55986U 23042A   24261.93310726 -.00007144  00000+0 -51364-3 0  9999
2 55986  43.0077  98.4903 0003051 265.9826  94.0667 15.02579563 82359
STARLINK-5915           
1 55987U 23042B   24262.58014281  .00000329  00000+0  39447-4 0  9994
2 55987  43.0042  94.7439 0001185 267.9377  92.1329 15.02536830 82459
STARLINK-5916           
1 55988U 23042C   24261.92646630  .00000033  00000+0  17506-4 0  9995
2 55988  43.0029  98.4435 0001163 255.7114 104.3599 15.02550112 82355
STARLINK-5947           
1 55989U 23042D   24262.52032666  .00000331  00000+0  39591-4 0  9990
2 55989  43.0032  95.1565 0001163 260.5797  99.4914 15.02536487 82443
STARLINK-5946           
1 55990U 23042E   24262.52809621  .00000616  00000+0  60668-4 0  9990
2 55990  42.9995  95.2164 0000495 282.1481  77.9306 15.02539281 82445
STARLINK-5948           
1 55991U 23042F   24261.97295994  .00001374  00000+0  11675-3 0  9996
2 55991  43.0037  97.9315 0001669 281.5820  78.4835 15.02556193 82024
STARLINK-5962           
1 55992U 23042G   24261.98295242  .00001005  00000+0  89440-4 0  9991
2 55992  43.0029  98.0038 0001330 256.8260 103.2434 15.02539062 82026
STARLINK-5969           
1 55993U 23042H   24262.52365027  .00000519  00000+0  53490-4 0  9997
2 55993  43.0019  95.1831 0000620 282.4213  77.6560 15.02552225 82108
STARLINK-5956           
1 55994U 23042J   24262.57791274  .00002599  00000+0  20732-3 0  9992
2 55994  43.0061  94.7276 0001256 241.2172 118.8544 15.02555062 82457
STARLINK-5957           
1 55995U 23042K   24262.51699948 -.00000133  00000+0  52049-5 0  9993
2 55995  43.0012  95.1322 0001134 275.2922  84.7791 15.02533698 82104
STARLINK-5903           
1 55996U 23042L   24262.56459697 -.00000112  00000+0  67505-5 0  9994
2 55996  43.0025  94.6283 0001305 275.0360  85.0334 15.02545868 82113
STARLINK-5902           
1 55998U 23042N   24262.82607609 -.00001002  00000+0 -59145-4 0  9993
2 55998  43.0015  93.1496 0000896 255.2406 104.8337 15.02537012 82495
STARLINK-5901           
1 55999U 23042P   24262.83385195 -.00000991  00000+0 -58272-4 0  9994
2 55999  43.0035  93.2105 0001412 293.6669  66.4025 15.02530883 82494
STARLINK-5910           
1 56000U 23042Q   24262.54795853 -.00000601  00000+0 -29421-4 0  9994
2 56000  43.0018  94.4995 0000978 283.4758  76.5976 15.02535354 82115
STARLINK-5944           
1 56001U 23042R   24262.55683930  .00000384  00000+0  43467-4 0  9990
2 56001  43.0009  94.5704 0000902 285.5839  74.4904 15.02531899 82450
STARLINK-5799           
1 56002U 23042S   24262.55128103 -.00000520  00000+0 -23383-4 0  9996
2 56002  43.0027  94.5265 0001728 259.3256 100.7392 15.02544552 82119
STARLINK-5789           
1 56003U 23042T   24262.82940168  .00000707  00000+0  67435-4 0  9991
2 56003  43.0075  93.1705 0003054 256.9015 103.1486 15.02535969 82491
STARLINK-5787           
1 56004U 23042U   24262.54461769  .00000600  00000+0  59495-4 0  9995
2 56004  43.0033  94.4785 0001869 260.3953  99.6679 15.02549279 82458
STARLINK-5801           
1 56005U 23042V   24262.55461371 -.00000591  00000+0 -28654-4 0  9990
2 56005  43.0030  94.5522 0001154 263.9512  96.1199 15.02547301 82456
STARLINK-5794           
1 56006U 23042W   24262.54018726 -.00000574  00000+0 -27420-4 0  9993
2 56006  42.9997  94.4424 0000717 284.5487  75.5275 15.02536972 82459
STARLINK-5806           
1 56007U 23042X   24262.54350904  .00001107  00000+0  97002-4 0  9995
2 56007  43.0011  94.4698 0001180 268.9839  91.0868 15.02551569 82454
STARLINK-5803           
1 56008U 23042Y   24261.27155611  .00002144  00000+0  17366-3 0  9999
2 56008  43.0041 101.2650 0001588 260.8681  99.1981 15.02546501 81927
STARLINK-5964           
1 56009U 23042Z   24262.54128974  .00002428  00000+0  19467-3 0  9992
2 56009  43.0008  94.4522 0001236 267.0460  93.0241 15.02551391 82450
STARLINK-5968           
1 56010U 23042AA  24262.53685078  .00001025  00000+0  90958-4 0  9993
2 56010  43.0038  94.4170 0001165 262.7660  97.3050 15.02540203 82454
STARLINK-5936           
1 56011U 23042AB  24262.80091782 -.00003915  00000+0 -27491-3 0  9990
2 56011  43.0021  80.8080 0001305 272.0838  87.9855 15.02535210 82633
STARLINK-5940           
1 56012U 23042AC  24262.54056484  .00002811  00000+0  22313-3 0  9992
2 56012  42.9951  82.2967 0000728  66.6976 293.3942 15.02526662 82598
STARLINK-5941           
1 56013U 23042AD  24262.53352083 -.00000045  00000+0  11754-4 0  9992
2 56013  43.0034  94.3913 0001657 258.1622 101.9035 15.02545530 82116
STARLINK-5942           
1 56014U 23042AE  24262.79982332 -.00003104  00000+0 -21484-3 0  9997
2 56014  43.0039  80.7998 0001123 259.6613 100.4103 15.02535666 82634
STARLINK-5939           
1 56015U 23042AF  24262.53722043 -.00000201  00000+0  21361-6 0  9992
2 56015  43.0016  82.2691 0001435 256.8834 103.1848 15.02550245 82598
STARLINK-5943           
1 56016U 23042AG  24262.51725400  .00000476  00000+0  50346-4 0  9997
2 56016  43.0025  82.1172 0001164 274.0704  86.0005 15.02531427 82257
STARLINK-5934           
1 56017U 23042AH  24262.79426753  .00000346  00000+0  40655-4 0  9995
2 56017  43.0030  80.7565 0001387 262.8495  97.2189 15.02536267 82639
STARLINK-5945           
1 56018U 23042AJ  24262.51835768 -.00001302  00000+0 -81311-4 0  9995
2 56018  43.0017  82.1275 0000858 254.0186 106.0562 15.02551598 82257
STARLINK-5949           
1 56019U 23042AK  24262.79759541 -.00000151  00000+0  38815-5 0  9992
2 56019  43.0021  80.7808 0001129 268.8587  91.2126 15.02531295 82634
STARLINK-5912           
1 56020U 23042AL  24262.85408521 -.00000312  00000+0 -80221-5 0  9998
2 56020  43.0024  80.3439 0001250 264.6000  95.4700 15.02531832 82646
STARLINK-5907           
1 56021U 23042AM  24262.52502334  .00000517  00000+0  53355-4 0  9992
2 56021  43.0022  82.1763 0001209 268.8964  91.1739 15.02531725 82257
STARLINK-5783           
1 56022U 23042AN  24261.91007095  .00000187  00000+0  28878-4 0  9994
2 56022  43.0034  85.3011 0001335 261.5069  98.5622 15.02546896 82165
STARLINK-5771           
1 56023U 23042AP  24262.51392180  .00000574  00000+0  57575-4 0  9990
2 56023  43.0016  82.0927 0001181 275.9891  84.0816 15.02534396 82254
STARLINK-5772           
1 56024U 23042AQ  24262.83078349 -.00002854  00000+0 -19629-3 0  9996
2 56024  42.9990  80.1715 0000767 276.1017  83.9738 15.02535005 82642
STARLINK-5766           
1 56025U 23042AR  24262.54167239 -.00000094  00000+0  81318-5 0  9991
2 56025  43.0004  82.2902 0001155 285.7037  74.3677 15.02532631 82257
STARLINK-5770           
1 56026U 23042AS  24262.57373948 -.00000651  00000+0 -33112-4 0  9999
2 56026  43.0051  81.6809 0001362 269.3121  90.7565 15.02543155 82263
STARLINK-5777           
1 56027U 23042AT  24262.51058641  .00000514  00000+0  53149-4 0  9992
2 56027  43.0030  82.0656 0001468 258.5678 101.5000 15.02542072 82598
STARLINK-5779           
1 56028U 23042AU  24262.82633046 -.00000942  00000+0 -54653-4 0  9993
2 56028  43.0063  80.1382 0002102 286.4697  73.5915 15.02537856 82640
STARLINK-5774           
1 56029U 23042AV  24261.50676283  .00001340  00000+0  11423-3 0  9996
2 56029  43.0041  87.4355 0001393 255.8567 104.2121 15.02548219 82101
STARLINK-5781           
1 56030U 23042AW  24262.82300125 -.00000662  00000+0 -33939-4 0  9998
2 56030  43.0047  80.1116 0001549 267.6145  92.4520 15.02544070 82641
STARLINK-5785           
1 56031U 23042AX  24262.82966391 -.00000891  00000+0 -50872-4 0  9991
2 56031  43.0044  80.1588 0001927 271.4594  88.6027 15.02539271 82649
STARLINK-5786           
1 56032U 23042AY  24262.81412570 -.00001549  00000+0 -99612-4 0  9992
2 56032  43.0051  80.0415 0002052 261.6054  98.4555 15.02539898 82648
STARLINK-5784           
1 56033U 23042AZ  24262.81745229  .00000000  00000+0  15094-4 0  9994
2 56033  43.0026  80.0664 0001119 266.1461  93.9253 15.02541156 82647
STARLINK-5782           
1 56034U 23042BA  24262.48062035  .00000894  00000+0  81260-4 0  9994
2 56034  43.0034  81.8399 0001217 278.3173  81.7532 15.02543359 82254
STARLINK-5792           
1 56035U 23042BB  24262.82078446  .00000703  00000+0  67116-4 0  9999
2 56035  43.0027  80.0923 0000913 281.2394  78.8346 15.02534753 82642
STARLINK-5790           
1 56036U 23042BC  24262.55043081  .00000120  00000+0  23972-4 0  9992
2 56036  43.0002  81.4994 0000795 292.4188  67.6570 15.02536569 82600
